OBJECT_NAME,OBJECT_ID,EPOCH,MEAN_MOTION,ECCENTRICITY,INCLINATION,RA_OF_ASC_NODE,ARG_OF_PERICENTER,MEAN_ANOMALY,EPHEMERIS_TYPE,CLASSIFICATION_TYPE,NORAD_CAT_ID,ELEMENT_SET_NO,REV_AT_EPOCH,BSTAR,MEAN_MOTION_DOT,MEAN_MOTION_DDOT
ONEWEB-0410,2022-012A,2026-07-22T19:57:07.502112,13.17648224,.00012348,87.9169,358.7705,47.9488,312.1748,0,U,51622,999,21839,.41520438E-4,.29E-6,0
ONEWEB-0411,2022-012B,2026-07-22T17:58:02.993664,13.10372570,.00023759,87.8823,29.1812,93.3892,266.7507,0,U,51623,999,21394,.12264801E-2,.441E-5,0
ONEWEB-0415,2022-012C,2026-07-22T17:53:10.459680,13.10370893,.00021098,87.8818,29.1795,85.6895,274.4473,0,U,51624,999,21394,.13585389E-2,.487E-5,0
ONEWEB-0416,2022-012D,2026-07-22T01:40:39.831744,13.10372850,.00020789,87.8810,29.3304,82.3729,277.7634,0,U,51625,999,21389,-.47556321E-3,-.153E-5,0
ONEWEB-0422,2022-012E,2026-07-22T20:11:42.522432,13.17648384,.00020865,87.9160,358.7686,111.8331,248.3023,0,U,51626,999,21850,-.32254456E-4,0,0
ONEWEB-0423,2022-012F,2026-07-21T03:56:20.009472,13.17648927,.00017592,87.9153,359.1053,93.3398,266.7934,0,U,51627,999,21817,.43129887E-4,.3E-6,0
ONEWEB-0425,2022-012G,2026-07-22T22:04:50.196288,13.10408915,.00012082,87.8822,29.1447,57.1209,303.0035,0,U,51628,999,21400,-.52941442E-4,-.6E-7,0
ONEWEB-0428,2022-012H,2026-07-22T10:35:46.771584,13.10373262,.0001811,87.8812,29.2470,89.2098,270.9237,0,U,51629,999,21390,.11120379E-2,.401E-5,0
ONEWEB-0431,2022-012J,2026-07-22T11:41:32.757216,13.10376211,.0002421,87.8824,29.2313,92.3922,267.7483,0,U,51630,999,21396,.93766709E-4,.45E-6,0
ONEWEB-0434,2022-012K,2026-07-22T18:30:01.430496,13.10370789,.00011229,87.8857,29.2014,74.0688,286.0563,0,U,51631,999,21398,.26734739E-3,.106E-5,0
ONEWEB-0435,2022-012L,2026-07-22T18:39:33.559200,13.10373468,.00019461,87.8817,29.1833,98.3527,261.7821,0,U,51632,999,21397,-.19614035E-2,-.672E-5,0
ONEWEB-0436,2022-012M,2026-07-22T21:39:11.542752,13.17648153,.00019611,87.9164,358.7440,99.4583,260.6770,0,U,51633,999,21838,.50887342E-4,.33E-6,0
ONEWEB-0438,2022-012N,2026-07-22T21:57:29.304864,13.10369489,.00017015,87.8812,29.1598,82.8481,277.2840,0,U,51634,999,21402,-.91140238E-3,-.305E-5,0
ONEWEB-0439,2022-012P,2026-07-22T22:02:23.004384,13.10367566,.00017251,87.8816,29.1463,88.5856,271.5469,0,U,51635,999,21400,-.22252688E-2,-.764E-5,0
ONEWEB-0442,2022-012Q,2026-07-22T21:28:14.688480,13.17651394,.00014912,87.9154,358.7752,77.1081,283.0217,0,U,51636,999,21837,.82894546E-4,.45E-6,0
ONEWEB-0443,2022-012R,2026-07-22T20:06:51.026976,13.17648211,.0001531,87.9157,358.7876,102.0708,258.0595,0,U,51637,999,21841,-.7104264E-4,-.15E-6,0
ONEWEB-0444,2022-012S,2026-07-22T18:07:49.105344,13.10369142,.00016575,87.8814,29.1779,93.4877,266.6440,0,U,51638,999,21399,-.41315517E-4,-.2E-7,0
ONEWEB-0445,2022-012T,2026-07-22T18:37:06.514176,13.10372508,.00018808,87.8828,29.1640,86.4936,273.6407,0,U,51639,999,21400,-.17405258E-2,-.595E-5,0
ONEWEB-0446,2022-012U,2026-07-22T18:05:22.477632,13.10369072,.00020362,87.8814,29.1954,81.7589,278.3769,0,U,51640,999,21398,.3467998E-3,.134E-5,0
ONEWEB-0448,2022-012V,2026-07-22T21:52:36.466752,13.10369535,.00018009,87.8812,29.1589,91.3338,268.7996,0,U,51641,999,21397,-.3318972E-3,-.103E-5,0
ONEWEB-0449,2022-012W,2026-07-22T01:50:25.460448,13.10370783,.00016547,87.8819,29.3128,69.1811,290.9493,0,U,51642,999,21387,-.13378845E-2,-.454E-5,0
ONEWEB-0451,2022-012X,2026-07-22T21:34:19.121088,13.17648129,.00016518,87.9166,358.7433,90.9098,269.2223,0,U,51643,999,21836,.13076455E-3,.64E-6,0
ONEWEB-0452,2022-012Y,2026-07-22T16:03:51.558336,13.17647979,.00015398,87.9152,358.8220,96.8778,263.2529,0,U,51644,999,21834,.11902102E-3,.59E-6,0
ONEWEB-0456,2022-012AA,2026-07-22T18:32:13.298496,13.10371560,.00018213,87.8826,29.1647,93.4356,266.6979,0,U,51646,999,21400,-.17405878E-2,-.595E-5,0
ONEWEB-0457,2022-012AB,2026-07-22T12:30:25.981056,13.10369538,.00019537,87.8815,29.2290,78.4219,281.7128,0,U,51647,999,21397,.47490875E-3,.178E-5,0
ONEWEB-0458,2022-012AC,2026-07-22T11:11:11.650848,13.10372595,.00016142,87.8817,29.2286,90.6097,269.5215,0,U,51648,999,21392,-.20047698E-2,-.687E-5,0
ONEWEB-0461,2022-012AD,2026-07-22T11:07:23.964384,13.17647571,.00019105,87.9164,358.8431,90.6590,269.4760,0,U,51649,999,21853,.52764424E-4,.33E-6,0
ONEWEB-0463,2022-012AE,2026-07-22T10:40:39.950976,13.17648273,.00019258,87.9155,358.8658,90.1372,269.9980,0,U,51650,999,21831,.21188513E-3,.95E-6,0
ONEWEB-0464,2022-012AF,2026-07-22T01:57:45.878400,13.10372290,.0001654,87.8814,29.3258,97.5234,262.6082,0,U,51651,999,21389,-.18753717E-2,-.642E-5,0
ONEWEB-0468,2022-012AG,2026-07-22T11:14:50.990208,13.10372130,.00017212,87.8812,29.2418,97.0462,263.0861,0,U,51652,999,21392,-.18710505E-2,-.64E-5,0
