{"epoch":1784799577,"count":18318,"objects":[{"id":"51622","name":"ONEWEB-0410","type":"PAYLOAD","l1":"1 51622U 22012A   26203.83133683  .00000029  00000-0  41520-4 0  9998","l2":"2 51622  87.9169 358.7705 0001235  47.9488 312.1748 13.17648224218391"},{"id":"51623","name":"ONEWEB-0411","type":"PAYLOAD","l1":"1 51623U 22012B   26203.74864576  .00000441  00000-0  12265-2 0  9991","l2":"2 51623  87.8823  29.1812 0002376  93.3892 266.7507 13.10372570213941"},{"id":"51624","name":"ONEWEB-0415","type":"PAYLOAD","l1":"1 51624U 22012C   26203.74525995  .00000487  00000-0  13585-2 0  9997","l2":"2 51624  87.8818  29.1795 0002110  85.6895 274.4473 13.10370893213943"},{"id":"51625","name":"ONEWEB-0416","type":"PAYLOAD","l1":"1 51625U 22012D   26203.06990546 -.00000153  00000-0 -47556-3 0  9999","l2":"2 51625  87.8810  29.3304 0002079  82.3729 277.7634 13.10372850213892"},{"id":"51626","name":"ONEWEB-0422","type":"PAYLOAD","l1":"1 51626U 22012E   26203.84146438  .00000000  00000-0 -32254-4 0  9999","l2":"2 51626  87.9160 358.7686 0002086 111.8331 248.3023 13.17648384218503"},{"id":"51627","name":"ONEWEB-0423","type":"PAYLOAD","l1":"1 51627U 22012F   26202.16412048  .00000030  00000-0  43130-4 0  9994","l2":"2 51627  87.9153 359.1053 0001759  93.3398 266.7934 13.17648927218173"},{"id":"51628","name":"ONEWEB-0425","type":"PAYLOAD","l1":"1 51628U 22012G   26203.92002542 -.00000006  00000-0 -52941-4 0  9999","l2":"2 51628  87.8822  29.1447 0001208  57.1209 303.0035 13.10408915214004"},{"id":"51629","name":"ONEWEB-0428","type":"PAYLOAD","l1":"1 51629U 22012H   26203.44151356  .00000401  00000-0  11120-2 0  9994","l2":"2 51629  87.8812  29.2470 0001811  89.2098 270.9237 13.10373262213903"},{"id":"51630","name":"ONEWEB-0431","type":"PAYLOAD","l1":"1 51630U 22012J   26203.48718469  .00000045  00000-0  93767-4 0  9997","l2":"2 51630  87.8824  29.2313 0002421  92.3922 267.7483 13.10376211213963"},{"id":"51631","name":"ONEWEB-0434","type":"PAYLOAD","l1":"1 51631U 22012K   26203.77084989  .00000106  00000-0  26735-3 0  9991","l2":"2 51631  87.8857  29.2014 0001123  74.0688 286.0563 13.10370789213981"},{"id":"51632","name":"ONEWEB-0435","type":"PAYLOAD","l1":"1 51632U 22012L   26203.77747175 -.00000672  00000-0 -19614-2 0  9992","l2":"2 51632  87.8817  29.1833 0001946  98.3527 261.7821 13.10373468213973"},{"id":"51633","name":"ONEWEB-0436","type":"PAYLOAD","l1":"1 51633U 22012M   26203.90221693  .00000033  00000-0  50887-4 0  9998","l2":"2 51633  87.9164 358.7440 0001961  99.4583 260.6770 13.17648153218380"},{"id":"51634","name":"ONEWEB-0438","type":"PAYLOAD","l1":"1 51634U 22012N   26203.91492251 -.00000305  00000-0 -91140-3 0  9990","l2":"2 51634  87.8812  29.1598 0001702  82.8481 277.2840 13.10369489214023"},{"id":"51635","name":"ONEWEB-0439","type":"PAYLOAD","l1":"1 51635U 22012P   26203.91832181 -.00000764  00000-0 -22253-2 0  9998","l2":"2 51635  87.8816  29.1463 0001725  88.5856 271.5469 13.10367566214009"},{"id":"51636","name":"ONEWEB-0442","type":"PAYLOAD","l1":"1 51636U 22012Q   26203.89461445  .00000045  00000-0  82895-4 0  9997","l2":"2 51636  87.9154 358.7752 0001491  77.1081 283.0217 13.17651394218377"},{"id":"51637","name":"ONEWEB-0443","type":"PAYLOAD","l1":"1 51637U 22012R   26203.83809059 -.00000015  00000-0 -71043-4 0  9991","l2":"2 51637  87.9157 358.7876 0001531 102.0708 258.0595 13.17648211218417"},{"id":"51638","name":"ONEWEB-0444","type":"PAYLOAD","l1":"1 51638U 22012S   26203.75542946 -.00000002  00000-0 -41316-4 0  9998","l2":"2 51638  87.8814  29.1779 0001658  93.4877 266.6440 13.10369142213996"},{"id":"51639","name":"ONEWEB-0445","type":"PAYLOAD","l1":"1 51639U 22012T   26203.77576984 -.00000595  00000-0 -17405-2 0  9997","l2":"2 51639  87.8828  29.1640 0001881  86.4936 273.6407 13.10372508214009"},{"id":"51640","name":"ONEWEB-0446","type":"PAYLOAD","l1":"1 51640U 22012U   26203.75373238  .00000134  00000-0  34680-3 0  9996","l2":"2 51640  87.8814  29.1954 0002036  81.7589 278.3769 13.10369072213980"},{"id":"51641","name":"ONEWEB-0448","type":"PAYLOAD","l1":"1 51641U 22012V   26203.91153318 -.00000103  00000-0 -33190-3 0  9993","l2":"2 51641  87.8812  29.1589 0001801  91.3338 268.7996 13.10369535213979"},{"id":"51642","name":"ONEWEB-0449","type":"PAYLOAD","l1":"1 51642U 22012W   26203.07668357 -.00000454  00000-0 -13379-2 0  9990","l2":"2 51642  87.8819  29.3128 0001655  69.1811 290.9493 13.10370783213879"},{"id":"51643","name":"ONEWEB-0451","type":"PAYLOAD","l1":"1 51643U 22012X   26203.89883242  .00000064  00000-0  13076-3 0  9993","l2":"2 51643  87.9166 358.7433 0001652  90.9098 269.2223 13.17648129218368"},{"id":"51644","name":"ONEWEB-0452","type":"PAYLOAD","l1":"1 51644U 22012Y   26203.66934674  .00000059  00000-0  11902-3 0  9995","l2":"2 51644  87.9152 358.8220 0001540  96.8778 263.2529 13.17647979218348"},{"id":"51646","name":"ONEWEB-0456","type":"PAYLOAD","l1":"1 51646U 22012AA  26203.77237614 -.00000595  00000-0 -17406-2 0  9990","l2":"2 51646  87.8826  29.1647 0001821  93.4356 266.6979 13.10371560214003"},{"id":"51647","name":"ONEWEB-0457","type":"PAYLOAD","l1":"1 51647U 22012AB  26203.52113404  .00000178  00000-0  47491-3 0  9997","l2":"2 51647  87.8815  29.2290 0001954  78.4219 281.7128 13.10369538213976"},{"id":"51648","name":"ONEWEB-0458","type":"PAYLOAD","l1":"1 51648U 22012AC  26203.46610707 -.00000687  00000-0 -20048-2 0  9994","l2":"2 51648  87.8817  29.2286 0001614  90.6097 269.5215 13.10372595213920"},{"id":"51649","name":"ONEWEB-0461","type":"PAYLOAD","l1":"1 51649U 22012AD  26203.46347181  .00000033  00000-0  52764-4 0  9993","l2":"2 51649  87.9164 358.8431 0001910  90.6590 269.4760 13.17647571218539"},{"id":"51650","name":"ONEWEB-0463","type":"PAYLOAD","l1":"1 51650U 22012AE  26203.44490684  .00000095  00000-0  21189-3 0  9994","l2":"2 51650  87.9155 358.8658 0001926  90.1372 269.9980 13.17648273218317"},{"id":"51651","name":"ONEWEB-0464","type":"PAYLOAD","l1":"1 51651U 22012AF  26203.08178100 -.00000642  00000-0 -18754-2 0  9994","l2":"2 51651  87.8814  29.3258 0001654  97.5234 262.6082 13.10372290213898"},{"id":"51652","name":"ONEWEB-0468","type":"PAYLOAD","l1":"1 51652U 22012AG  26203.46864572 -.00000640  00000-0 -18711-2 0  9993","l2":"2 51652  87.8812  29.2418 0001721  97.0462 263.0861 13.10372130213924"}]}